[
    {
        "OBJECT_NAME": "NAVSTAR 59 (USA 192)",
        "OBJECT_ID": "2006-052A",
        "EPOCH": "2025-03-10T05:46:09.944832",
        "MEAN_MOTION": 2.00556992,
        "ECCENTRICITY": 0.008771,
        "INCLINATION": 55.0459,
        "RA_OF_ASC_NODE": 232.4048,
        "ARG_OF_PERICENTER": 85.0567,
        "MEAN_ANOMALY": 275.912,
        "EPHEMERIS_TYPE": 0,
        "CLASSIFICATION_TYPE": "U",
        "NORAD_CAT_ID": 29601,
        "ELEMENT_SET_NO": 999,
        "REV_AT_EPOCH": 13410,
        "BSTAR": 0,
        "MEAN_MOTION_DOT": 1e-07,
        "MEAN_MOTION_DDOT": 0
    },
    {
        "OBJECT_NAME": "NAVSTAR 60 (USA 196)",
        "OBJECT_ID": "2007-047A",
        "EPOCH": "2025-03-10T01:13:23.216160",
        "MEAN_MOTION": 2.00551751,
        "ECCENTRICITY": 0.0158997,
        "INCLINATION": 53.7629,
        "RA_OF_ASC_NODE": 99.2359,
        "ARG_OF_PERICENTER": 79.9356,
        "MEAN_ANOMALY": 281.9229,
        "EPHEMERIS_TYPE": 0,
        "CLASSIFICATION_TYPE": "U",
        "NORAD_CAT_ID": 32260,
        "ELEMENT_SET_NO": 999,
        "REV_AT_EPOCH": 12750,
        "BSTAR": 0,
        "MEAN_MOTION_DOT": 1.1e-07,
        "MEAN_MOTION_DDOT": 0
    },
    {
        "OBJECT_NAME": "NAVSTAR 61 (USA 199)",
        "OBJECT_ID": "2007-062A",
        "EPOCH": "2025-03-10T02:41:28.808736",
        "MEAN_MOTION": 2.00561951,
        "ECCENTRICITY": 0.0029441,
        "INCLINATION": 55.4125,
        "RA_OF_ASC_NODE": 292.762,
        "ARG_OF_PERICENTER": 153.4276,
        "MEAN_ANOMALY": 20.0681,
        "EPHEMERIS_TYPE": 0,
        "CLASSIFICATION_TYPE": "U",
        "NORAD_CAT_ID": 32384,
        "ELEMENT_SET_NO": 999,
        "REV_AT_EPOCH": 12620,
        "BSTAR": 0,
        "MEAN_MOTION_DOT": -9e-08,
        "MEAN_MOTION_DDOT": 0
    },
    {
        "OBJECT_NAME": "NAVSTAR 62 (USA 201)",
        "OBJECT_ID": "2008-012A",
        "EPOCH": "2025-03-10T11:02:38.989536",
        "MEAN_MOTION": 2.00555491,
        "ECCENTRICITY": 0.0195046,
        "INCLINATION": 54.4568,
        "RA_OF_ASC_NODE": 168.4352,
        "ARG_OF_PERICENTER": 241.7986,
        "MEAN_ANOMALY": 116.2222,
        "EPHEMERIS_TYPE": 0,
        "CLASSIFICATION_TYPE": "U",
        "NORAD_CAT_ID": 32711,
        "ELEMENT_SET_NO": 999,
        "REV_AT_EPOCH": 12445,
        "BSTAR": 0,
        "MEAN_MOTION_DOT": -4.5e-07,
        "MEAN_MOTION_DDOT": 0
    },
    {
        "OBJECT_NAME": "NAVSTAR 64 (USA 206)",
        "OBJECT_ID": "2009-043A",
        "EPOCH": "2025-03-10T22:58:28.860672",
        "MEAN_MOTION": 2.00553448,
        "ECCENTRICITY": 0.0053874,
        "INCLINATION": 55.892,
        "RA_OF_ASC_NODE": 45.7026,
        "ARG_OF_PERICENTER": 74.8582,
        "MEAN_ANOMALY": 295.2288,
        "EPHEMERIS_TYPE": 0,
        "CLASSIFICATION_TYPE": "U",
        "NORAD_CAT_ID": 35752,
        "ELEMENT_SET_NO": 999,
        "REV_AT_EPOCH": 11407,
        "BSTAR": 0,
        "MEAN_MOTION_DOT": -5.3e-07,
        "MEAN_MOTION_DDOT": 0
    },
    {
        "OBJECT_NAME": "NAVSTAR 65 (USA 213)",
        "OBJECT_ID": "2010-022A",
        "EPOCH": "2025-03-09T06:30:38.769984",
        "MEAN_MOTION": 2.00564797,
        "ECCENTRICITY": 0.0121689,
        "INCLINATION": 54.3667,
        "RA_OF_ASC_NODE": 227.2985,
        "ARG_OF_PERICENTER": 63.6978,
        "MEAN_ANOMALY": 288.9241,
        "EPHEMERIS_TYPE": 0,
        "CLASSIFICATION_TYPE": "U",
        "NORAD_CAT_ID": 36585,
        "ELEMENT_SET_NO": 999,
        "REV_AT_EPOCH": 10826,
        "BSTAR": 0,
        "MEAN_MOTION_DOT": 1.7e-07,
        "MEAN_MOTION_DDOT": 0
    },
    {
        "OBJECT_NAME": "NAVSTAR 67 (USA 239)",
        "OBJECT_ID": "2012-053A",
        "EPOCH": "2025-03-10T03:27:35.953632",
        "MEAN_MOTION": 2.00561724,
        "ECCENTRICITY": 0.0163265,
        "INCLINATION": 53.5283,
        "RA_OF_ASC_NODE": 162.5979,
        "ARG_OF_PERICENTER": 59.8957,
        "MEAN_ANOMALY": 301.7231,
        "EPHEMERIS_TYPE": 0,
        "CLASSIFICATION_TYPE": "U",
        "NORAD_CAT_ID": 38833,
        "ELEMENT_SET_NO": 999,
        "REV_AT_EPOCH": 9013,
        "BSTAR": 0,
        "MEAN_MOTION_DOT": -4.4e-07,
        "MEAN_MOTION_DDOT": 0
    },
    {
        "OBJECT_NAME": "NAVSTAR 68 (USA 242)",
        "OBJECT_ID": "2013-023A",
        "EPOCH": "2025-03-10T12:07:37.162272",
        "MEAN_MOTION": 2.00561816,
        "ECCENTRICITY": 0.0132799,
        "INCLINATION": 54.882,
        "RA_OF_ASC_NODE": 287.818,
        "ARG_OF_PERICENTER": 46.7997,
        "MEAN_ANOMALY": 314.3502,
        "EPHEMERIS_TYPE": 0,
        "CLASSIFICATION_TYPE": "U",
        "NORAD_CAT_ID": 39166,
        "ELEMENT_SET_NO": 999,
        "REV_AT_EPOCH": 8658,
        "BSTAR": 0,
        "MEAN_MOTION_DOT": -3e-08,
        "MEAN_MOTION_DDOT": 0
    },
    {
        "OBJECT_NAME": "NAVSTAR 69 (USA 248)",
        "OBJECT_ID": "2014-008A",
        "EPOCH": "2025-03-10T12:06:34.509312",
        "MEAN_MOTION": 2.00557483,
        "ECCENTRICITY": 0.0076452,
        "INCLINATION": 53.6077,
        "RA_OF_ASC_NODE": 168.2224,
        "ARG_OF_PERICENTER": 222.8992,
        "MEAN_ANOMALY": 136.505,
        "EPHEMERIS_TYPE": 0,
        "CLASSIFICATION_TYPE": "U",
        "NORAD_CAT_ID": 39533,
        "ELEMENT_SET_NO": 999,
        "REV_AT_EPOCH": 8038,
        "BSTAR": 0,
        "MEAN_MOTION_DOT": -4.5e-07,
        "MEAN_MOTION_DDOT": 0
    },
    {
        "OBJECT_NAME": "NAVSTAR 70 (USA 251)",
        "OBJECT_ID": "2014-026A",
        "EPOCH": "2025-03-08T07:07:42.167712",
        "MEAN_MOTION": 2.00549637,
        "ECCENTRICITY": 0.0036092,
        "INCLINATION": 56.6718,
        "RA_OF_ASC_NODE": 349.6294,
        "ARG_OF_PERICENTER": 319.4987,
        "MEAN_ANOMALY": 40.2468,
        "EPHEMERIS_TYPE": 0,
        "CLASSIFICATION_TYPE": "U",
        "NORAD_CAT_ID": 39741,
        "ELEMENT_SET_NO": 999,
        "REV_AT_EPOCH": 7919,
        "BSTAR": 0,
        "MEAN_MOTION_DOT": -1.1e-06,
        "MEAN_MOTION_DDOT": 0
    },
    {
        "OBJECT_NAME": "NAVSTAR 71 (USA 256)",
        "OBJECT_ID": "2014-045A",
        "EPOCH": "2025-03-08T21:01:11.611776",
        "MEAN_MOTION": 2.005543,
        "ECCENTRICITY": 0.0028233,
        "INCLINATION": 55.0608,
        "RA_OF_ASC_NODE": 107.0291,
        "ARG_OF_PERICENTER": 118.3551,
        "MEAN_ANOMALY": 241.9963,
        "EPHEMERIS_TYPE": 0,
        "CLASSIFICATION_TYPE": "U",
        "NORAD_CAT_ID": 40105,
        "ELEMENT_SET_NO": 999,
        "REV_AT_EPOCH": 7674,
        "BSTAR": 0,
        "MEAN_MOTION_DOT": 1e-08,
        "MEAN_MOTION_DDOT": 0
    }
]