GPS BIIRM-3 (PRN 12)    
1 29601U 06052A   25069.24039288  .00000010  00000+0  00000+0 0  9998
2 29601  55.0459 232.4048 0087710  85.0567 275.9120  2.00556992134108
GPS BIIRM-4 (PRN 15)    
1 32260U 07047A   25069.05096315  .00000011  00000+0  00000+0 0  9992
2 32260  53.7629  99.2359 0158997  79.9356 281.9229  2.00551751127506
GPS BIIRM-5 (PRN 29)    
1 32384U 07062A   25069.11213899 -.00000009  00000+0  00000+0 0  9999
2 32384  55.4125 292.7620 0029441 153.4276  20.0681  2.00561951126207
GPS BIIRM-6 (PRN 07)    
1 32711U 08012A   25069.46017349 -.00000045  00000+0  00000+0 0  9999
2 32711  54.4568 168.4352 0195046 241.7986 116.2222  2.00555491124452
GPS BIIRM-8 (PRN 05)    
1 35752U 09043A   25069.95727848 -.00000053  00000+0  00000+0 0  9997
2 35752  55.8920  45.7026 0053874  74.8582 295.2288  2.00553448114078
GPS BIIF-1  (PRN 25)    
1 36585U 10022A   25068.27128206  .00000017  00000+0  00000+0 0  9997
2 36585  54.3667 227.2985 0121689  63.6978 288.9241  2.00564797108262
GPS BIIF-3  (PRN 24)    
1 38833U 12053A   25069.14416613 -.00000044  00000+0  00000+0 0  9991
2 38833  53.5283 162.5979 0163265  59.8957 301.7231  2.00561724 90135
GPS BIIF-4  (PRN 27)    
1 39166U 13023A   25069.50529123 -.00000003  00000+0  00000+0 0  9995
2 39166  54.8820 287.8180 0132799  46.7997 314.3502  2.00561816 86585
GPS BIIF-5  (PRN 30)    
1 39533U 14008A   25069.50456608 -.00000045  00000+0  00000+0 0  9990
2 39533  53.6077 168.2224 0076452 222.8992 136.5050  2.00557483 80389
GPS BIIF-6  (PRN 06)    
1 39741U 14026A   25067.29701583 -.00000110  00000+0  00000+0 0  9993
2 39741  56.6718 349.6294 0036092 319.4987  40.2468  2.00549637 79193
GPS BIIF-7  (PRN 09)    
1 40105U 14045A   25067.87582884  .00000001  00000+0  00000+0 0  9993
2 40105  55.0608 107.0291 0028233 118.3551 241.9963  2.00554300 76745
